ISS OBJECT XW           
1 66910U 98067XW  26048.34567788  .00113595  00000+0  11943-2 0  9993
2 66910  51.6262 168.8010 0002813 346.6641  13.4279 15.63452131 11991
ISS OBJECT XX           
1 66911U 98067XX  26048.34722087  .00176276  00000+0  15925-2 0  9998
2 66911  51.6243 168.0569 0004609 337.9122  22.1675 15.67016964 11995
ISS OBJECT XY           
1 66912U 98067XY  26048.48955801  .00084374  00000+0  10138-2 0  9994
2 66912  51.6286 169.0212 0000976 353.0071   7.0908 15.60137894 11994
ISS OBJECT XZ           
1 67683U 98067XZ  26048.49549627  .00039734  00000+0  69500-3 0  9994
2 67683  51.6309 172.0578 0010439 120.5199 239.6822 15.50177307  1650
GXIBA-1                 
1 67684U 98067YA  26048.36147841  .00076510  00000+0  12774-2 0  9996
2 67684  51.6312 172.6641 0011997 112.8351 247.3906 15.51181668  1639
CORAL                   
1 67685U 98067YB  26048.36558399  .00043084  00000+0  74765-3 0  9990
2 67685  51.6312 172.6909 0012327 115.3713 244.8554 15.50340482  1636
ISS OBJECT YC           
1 67686U 98067YC  26048.36466507  .00054294  00000+0  93371-3 0  9999
2 67686  51.6315 172.6861 0007790  87.7073 272.4808 15.50543709  1632
LEOPARD                 
1 67687U 98067YD  26048.49491505  .00043637  00000+0  76005-3 0  9994
2 67687  51.6314 172.0549 0007844  91.1853 269.0035 15.50279822  1573
ISS OBJECT YE           
1 67688U 98067YE  26048.49392385  .00049101  00000+0  84802-3 0  9997
2 67688  51.6314 172.0482 0007738  89.8770 270.3106 15.50466901  1574
CREW DRAGON 12          
1 67796U 26031A   26048.18286298  .00009660  00000+0  18518-3 0  9997
2 67796  51.6319 173.7204 0011018 107.0393 253.1803 15.48657976   572
